[{"OBJECT_NAME":"ONEWEB-0526","OBJECT_ID":"2022-138AH","EPOCH":"2025-10-02T00:55:19.159680","MEAN_MOTION":13.19726585,"ECCENTRICITY":0.0001815,"INCLINATION":87.9287,"RA_OF_ASC_NODE":356.2918,"ARG_OF_PERICENTER":102.8258,"MEAN_ANOMALY":257.3077,"EPHEMERIS_TYPE":0,"CLASSIFICATION_TYPE":"U","NORAD_CAT_ID":54144,"ELEMENT_SET_NO":999,"REV_AT_EPOCH":14275,"BSTAR":0.00015844,"MEAN_MOTION_DOT":7.6e-7,"MEAN_MOTION_DDOT":0},{"OBJECT_NAME":"ONEWEB-0529","OBJECT_ID":"2022-138AJ","EPOCH":"2025-10-01T23:10:42.490848","MEAN_MOTION":13.19725869,"ECCENTRICITY":0.0001705,"INCLINATION":87.9271,"RA_OF_ASC_NODE":356.3441,"ARG_OF_PERICENTER":105.8767,"MEAN_ANOMALY":254.2554,"EPHEMERIS_TYPE":0,"CLASSIFICATION_TYPE":"U","NORAD_CAT_ID":54145,"ELEMENT_SET_NO":999,"REV_AT_EPOCH":14276,"BSTAR":-6.0176e-5,"MEAN_MOTION_DOT":-1.1e-7,"MEAN_MOTION_DDOT":0},{"OBJECT_NAME":"ONEWEB-0531","OBJECT_ID":"2022-138AK","EPOCH":"2025-10-02T03:05:54.894048","MEAN_MOTION":13.20770039,"ECCENTRICITY":0.0002829,"INCLINATION":87.924,"RA_OF_ASC_NODE":325.8949,"ARG_OF_PERICENTER":96.1162,"MEAN_ANOMALY":264.0294,"EPHEMERIS_TYPE":0,"CLASSIFICATION_TYPE":"U","NORAD_CAT_ID":54146,"ELEMENT_SET_NO":999,"REV_AT_EPOCH":14524,"BSTAR":0.00014683,"MEAN_MOTION_DOT":7.3e-7,"MEAN_MOTION_DDOT":0},{"OBJECT_NAME":"ONEWEB-0535","OBJECT_ID":"2022-138AL","EPOCH":"2025-10-01T22:09:16.355808","MEAN_MOTION":13.1972728,"ECCENTRICITY":0.0002179,"INCLINATION":87.9286,"RA_OF_ASC_NODE":356.3102,"ARG_OF_PERICENTER":93.8498,"MEAN_ANOMALY":266.2884,"EPHEMERIS_TYPE":0,"CLASSIFICATION_TYPE":"U","NORAD_CAT_ID":54147,"ELEMENT_SET_NO":999,"REV_AT_EPOCH":14277,"BSTAR":-7.7111e-5,"MEAN_MOTION_DOT":-1.8e-7,"MEAN_MOTION_DDOT":0},{"OBJECT_NAME":"ONEWEB-0536","OBJECT_ID":"2022-138AM","EPOCH":"2025-10-02T02:47:44.445696","MEAN_MOTION":13.20772479,"ECCENTRICITY":0.0002956,"INCLINATION":87.924,"RA_OF_ASC_NODE":325.9445,"ARG_OF_PERICENTER":99.5278,"MEAN_ANOMALY":260.619,"EPHEMERIS_TYPE":0,"CLASSIFICATION_TYPE":"U","NORAD_CAT_ID":54148,"ELEMENT_SET_NO":999,"REV_AT_EPOCH":14523,"BSTAR":0.00014682,"MEAN_MOTION_DOT":7.3e-7,"MEAN_MOTION_DDOT":0},{"OBJECT_NAME":"ONEWEB-0527","OBJECT_ID":"2022-166A","EPOCH":"2025-10-02T01:07:11.801568","MEAN_MOTION":13.21824404,"ECCENTRICITY":0.0001916,"INCLINATION":87.9181,"RA_OF_ASC_NODE":295.5134,"ARG_OF_PERICENTER":95.1081,"MEAN_ANOMALY":265.0272,"EPHEMERIS_TYPE":0,"CLASSIFICATION_TYPE":"U","NORAD_CAT_ID":54642,"ELEMENT_SET_NO":999,"REV_AT_EPOCH":13743,"BSTAR":-2.2078e-5,"MEAN_MOTION_DOT":4.0e-8,"MEAN_MOTION_DDOT":0},{"OBJECT_NAME":"ONEWEB-0528","OBJECT_ID":"2022-166B","EPOCH":"2025-10-02T01:16:16.487904","MEAN_MOTION":13.21824686,"ECCENTRICITY":0.0001886,"INCLINATION":87.9184,"RA_OF_ASC_NODE":295.515,"ARG_OF_PERICENTER":95.1953,"MEAN_ANOMALY":264.9396,"EPHEMERIS_TYPE":0,"CLASSIFICATION_TYPE":"U","NORAD_CAT_ID":54643,"ELEMENT_SET_NO":999,"REV_AT_EPOCH":13744,"BSTAR":2.5035e-5,"MEAN_MOTION_DOT":2.3e-7,"MEAN_MOTION_DDOT":0},{"OBJECT_NAME":"ONEWEB-0539","OBJECT_ID":"2022-166C","EPOCH":"2025-10-02T02:08:31.270848","MEAN_MOTION":13.21826423,"ECCENTRICITY":0.0001788,"INCLINATION":87.9177,"RA_OF_ASC_NODE":295.4743,"ARG_OF_PERICENTER":87.3617,"MEAN_ANOMALY":272.7722,"EPHEMERIS_TYPE":0,"CLASSIFICATION_TYPE":"U","NORAD_CAT_ID":54644,"ELEMENT_SET_NO":999,"REV_AT_EPOCH":13744,"BSTAR":0.00016368,"MEAN_MOTION_DOT":8.1e-7,"MEAN_MOTION_DDOT":0},{"OBJECT_NAME":"ONEWEB-0540","OBJECT_ID":"2022-166D","EPOCH":"2025-10-02T02:17:48.050592","MEAN_MOTION":13.21825347,"ECCENTRICITY":0.0001783,"INCLINATION":87.9182,"RA_OF_ASC_NODE":295.511,"ARG_OF_PERICENTER":86.5332,"MEAN_ANOMALY":273.6006,"EPHEMERIS_TYPE":0,"CLASSIFICATION_TYPE":"U","NORAD_CAT_ID":54645,"ELEMENT_SET_NO":999,"REV_AT_EPOCH":13743,"BSTAR":0.00016784,"MEAN_MOTION_DOT":8.2e-7,"MEAN_MOTION_DDOT":0},{"OBJECT_NAME":"ONEWEB-0542","OBJECT_ID":"2022-166E","EPOCH":"2025-10-02T02:22:07.996224","MEAN_MOTION":13.21824879,"ECCENTRICITY":0.0001876,"INCLINATION":87.9181,"RA_OF_ASC_NODE":295.4702,"ARG_OF_PERICENTER":81.6381,"MEAN_ANOMALY":278.4965,"EPHEMERIS_TYPE":0,"CLASSIFICATION_TYPE":"U","NORAD_CAT_ID":54646,"ELEMENT_SET_NO":999,"REV_AT_EPOCH":13744,"BSTAR":0.00025974,"MEAN_MOTION_DOT":1.2e-6,"MEAN_MOTION_DDOT":0},{"OBJECT_NAME":"ONEWEB-0545","OBJECT_ID":"2022-166F","EPOCH":"2025-10-02T01:34:26.423040","MEAN_MOTION":13.21824182,"ECCENTRICITY":0.0001608,"INCLINATION":87.918,"RA_OF_ASC_NODE":295.4962,"ARG_OF_PERICENTER":77.9577,"MEAN_ANOMALY":282.1737,"EPHEMERIS_TYPE":0,"CLASSIFICATION_TYPE":"U","NORAD_CAT_ID":54647,"ELEMENT_SET_NO":999,"REV_AT_EPOCH":13740,"BSTAR":2.626e-5,"MEAN_MOTION_DOT":2.4e-7,"MEAN_MOTION_DDOT":0},{"OBJECT_NAME":"ONEWEB-0580","OBJECT_ID":"2022-166G","EPOCH":"2025-10-02T00:55:50.368224","MEAN_MOTION":13.21826085,"ECCENTRICITY":0.000193,"INCLINATION":87.918,"RA_OF_ASC_NODE":295.4998,"ARG_OF_PERICENTER":80.8316,"MEAN_ANOMALY":279.3036,"EPHEMERIS_TYPE":0,"CLASSIFICATION_TYPE":"U","NORAD_CAT_ID":54648,"ELEMENT_SET_NO":999,"REV_AT_EPOCH":13744,"BSTAR":6.71e-5,"MEAN_MOTION_DOT":4.1e-7,"MEAN_MOTION_DDOT":0},{"OBJECT_NAME":"ONEWEB-0582","OBJECT_ID":"2022-166H","EPOCH":"2025-10-02T01:57:09.687168","MEAN_MOTION":13.21824632,"ECCENTRICITY":0.0001907,"INCLINATION":87.9177,"RA_OF_ASC_NODE":295.4846,"ARG_OF_PERICENTER":77.2115,"MEAN_ANOMALY":282.9232,"EPHEMERIS_TYPE":0,"CLASSIFICATION_TYPE":"U","NORAD_CAT_ID":54649,"ELEMENT_SET_NO":999,"REV_AT_EPOCH":13742,"BSTAR":0.00012625,"MEAN_MOTION_DOT":6.5e-7,"MEAN_MOTION_DDOT":0},{"OBJECT_NAME":"ONEWEB-0583","OBJECT_ID":"2022-166J","EPOCH":"2025-10-02T02:13:03.756576","MEAN_MOTION":13.21824801,"ECCENTRICITY":0.0001828,"INCLINATION":87.918,"RA_OF_ASC_NODE":295.5078,"ARG_OF_PERICENTER":89.2297,"MEAN_ANOMALY":270.9047,"EPHEMERIS_TYPE":0,"CLASSIFICATION_TYPE":"U","NORAD_CAT_ID":54650,"ELEMENT_SET_NO":999,"REV_AT_EPOCH":13743,"BSTAR":4.6407e-5,"MEAN_MOTION_DOT":3.2e-7,"MEAN_MOTION_DDOT":0},{"OBJECT_NAME":"ONEWEB-0584","OBJECT_ID":"2022-166K","EPOCH":"2025-10-02T00:53:34.028160","MEAN_MOTION":13.2182545,"ECCENTRICITY":0.0002009,"INCLINATION":87.9182,"RA_OF_ASC_NODE":295.5038,"ARG_OF_PERICENTER":80.8459,"MEAN_ANOMALY":279.2902,"EPHEMERIS_TYPE":0,"CLASSIFICATION_TYPE":"U","NORAD_CAT_ID":54651,"ELEMENT_SET_NO":999,"REV_AT_EPOCH":13741,"BSTAR":0.00017666,"MEAN_MOTION_DOT":8.6e-7,"MEAN_MOTION_DDOT":0},{"OBJECT_NAME":"ONEWEB-0585","OBJECT_ID":"2022-166L","EPOCH":"2025-10-02T01:29:54.354624","MEAN_MOTION":13.21825177,"ECCENTRICITY":0.0001981,"INCLINATION":87.918,"RA_OF_ASC_NODE":295.4843,"ARG_OF_PERICENTER":96.0781,"MEAN_ANOMALY":264.0578,"EPHEMERIS_TYPE":0,"CLASSIFICATION_TYPE":"U","NORAD_CAT_ID":54652,"ELEMENT_SET_NO":999,"REV_AT_EPOCH":13742,"BSTAR":4.1579e-5,"MEAN_MOTION_DOT":3.0e-7,"MEAN_MOTION_DDOT":0},{"OBJECT_NAME":"ONEWEB-0586","OBJECT_ID":"2022-166M","EPOCH":"2025-10-02T01:48:04.626720","MEAN_MOTION":13.21825319,"ECCENTRICITY":0.0001823,"INCLINATION":87.9181,"RA_OF_ASC_NODE":295.5069,"ARG_OF_PERICENTER":87.2545,"MEAN_ANOMALY":272.8798,"EPHEMERIS_TYPE":0,"CLASSIFICATION_TYPE":"U","NORAD_CAT_ID":54653,"ELEMENT_SET_NO":999,"REV_AT_EPOCH":13742,"BSTAR":8.6603e-5,"MEAN_MOTION_DOT":4.9e-7,"MEAN_MOTION_DDOT":0},{"OBJECT_NAME":"ONEWEB-0587","OBJECT_ID":"2022-166N","EPOCH":"2025-10-02T02:01:41.600064","MEAN_MOTION":13.21827233,"ECCENTRICITY":0.0002108,"INCLINATION":87.9187,"RA_OF_ASC_NODE":295.4537,"ARG_OF_PERICENTER":103.0706,"MEAN_ANOMALY":257.0664,"EPHEMERIS_TYPE":0,"CLASSIFICATION_TYPE":"U","NORAD_CAT_ID":54654,"ELEMENT_SET_NO":999,"REV_AT_EPOCH":13758,"BSTAR":9.3461e-5,"MEAN_MOTION_DOT":5.2e-7,"MEAN_MOTION_DDOT":0},{"OBJECT_NAME":"ONEWEB-0589","OBJECT_ID":"2022-166P","EPOCH":"2025-10-02T01:43:32.448576","MEAN_MOTION":13.21824641,"ECCENTRICITY":0.0002177,"INCLINATION":87.918,"RA_OF_ASC_NODE":295.4991,"ARG_OF_PERICENTER":69.0883,"MEAN_ANOMALY":291.0484,"EPHEMERIS_TYPE":0,"CLASSIFICATION_TYPE":"U","NORAD_CAT_ID":54655,"ELEMENT_SET_NO":999,"REV_AT_EPOCH":13744,"BSTAR":3.5871e-5,"MEAN_MOTION_DOT":2.8e-7,"MEAN_MOTION_DDOT":0},{"OBJECT_NAME":"ONEWEB-0590","OBJECT_ID":"2022-166Q","EPOCH":"2025-10-02T02:17:22.610976","MEAN_MOTION":13.21827636,"ECCENTRICITY":0.0002383,"INCLINATION":87.918,"RA_OF_ASC_NODE":295.4701,"ARG_OF_PERICENTER":91.5913,"MEAN_ANOMALY":268.5494,"EPHEMERIS_TYPE":0,"CLASSIFICATION_TYPE":"U","NORAD_CAT_ID":54656,"ELEMENT_SET_NO":999,"REV_AT_EPOCH":13743,"BSTAR":-2.2719e-5,"MEAN_MOTION_DOT":4.0e-8,"MEAN_MOTION_DDOT":0},{"OBJECT_NAME":"ONEWEB-0591","OBJECT_ID":"2022-166R","EPOCH":"2025-10-02T02:35:46.214592","MEAN_MOTION":13.21825972,"ECCENTRICITY":0.0002001,"INCLINATION":87.9178,"RA_OF_ASC_NODE":295.4916,"ARG_OF_PERICENTER":85.1123,"MEAN_ANOMALY":275.0239,"EPHEMERIS_TYPE":0,"CLASSIFICATION_TYPE":"U","NORAD_CAT_ID":54657,"ELEMENT_SET_NO":999,"REV_AT_EPOCH":13746,"BSTAR":-0.00027039,"MEAN_MOTION_DOT":-9.9e-7,"MEAN_MOTION_DDOT":0},{"OBJECT_NAME":"ONEWEB-0592","OBJECT_ID":"2022-166S","EPOCH":"2025-10-02T02:40:18.693408","MEAN_MOTION":13.21825143,"ECCENTRICITY":0.0002,"INCLINATION":87.9189,"RA_OF_ASC_NODE":295.4471,"ARG_OF_PERICENTER":89.3876,"MEAN_ANOMALY":270.7487,"EPHEMERIS_TYPE":0,"CLASSIFICATION_TYPE":"U","NORAD_CAT_ID":54658,"ELEMENT_SET_NO":999,"REV_AT_EPOCH":13734,"BSTAR":4.556e-6,"MEAN_MOTION_DOT":1.5e-7,"MEAN_MOTION_DDOT":0},{"OBJECT_NAME":"ONEWEB-0593","OBJECT_ID":"2022-166T","EPOCH":"2025-10-02T01:25:21.059328","MEAN_MOTION":13.21828712,"ECCENTRICITY":0.0001791,"INCLINATION":87.9178,"RA_OF_ASC_NODE":295.4915,"ARG_OF_PERICENTER":88.7157,"MEAN_ANOMALY":271.4182,"EPHEMERIS_TYPE":0,"CLASSIFICATION_TYPE":"U","NORAD_CAT_ID":54659,"ELEMENT_SET_NO":999,"REV_AT_EPOCH":13744,"BSTAR":6.7818e-5,"MEAN_MOTION_DOT":4.1e-7,"MEAN_MOTION_DDOT":0},{"OBJECT_NAME":"ONEWEB-0594","OBJECT_ID":"2022-166U","EPOCH":"2025-10-02T01:52:37.445088","MEAN_MOTION":13.21825163,"ECCENTRICITY":0.0001857,"INCLINATION":87.9179,"RA_OF_ASC_NODE":295.5042,"ARG_OF_PERICENTER":93.0262,"MEAN_ANOMALY":267.1084,"EPHEMERIS_TYPE":0,"CLASSIFICATION_TYPE":"U","NORAD_CAT_ID":54660,"ELEMENT_SET_NO":999,"REV_AT_EPOCH":13746,"BSTAR":0.00013383,"MEAN_MOTION_DOT":6.8e-7,"MEAN_MOTION_DDOT":0}]
